[{"OBJECT_NAME":"STARLINK-5496","OBJECT_ID":"2023-083L","EPOCH":"2026-03-08T02:50:39.079104","MEAN_MOTION":15.02537731,"ECCENTRICITY":0.00013242,"INCLINATION":43.004,"RA_OF_ASC_NODE":90.3496,"ARG_OF_PERICENTER":265.0186,"MEAN_ANOMALY":95.0505,"EPHEMERIS_TYPE":0,"CLASSIFICATION_TYPE":"U","NORAD_CAT_ID":56886,"ELEMENT_SET_NO":999,"REV_AT_EPOCH":15143,"BSTAR":7.0957663e-5,"MEAN_MOTION_DOT":7.55e-6,"MEAN_MOTION_DDOT":0},{"OBJECT_NAME":"ELECTRON KICK STAGE R\/B","OBJECT_ID":"2025-229C","EPOCH":"2026-03-09T11:01:34.584384","MEAN_MOTION":15.04670102,"ECCENTRICITY":0.00392514,"INCLINATION":41.9818,"RA_OF_ASC_NODE":119.4948,"ARG_OF_PERICENTER":118.9737,"MEAN_ANOMALY":241.5033,"EPHEMERIS_TYPE":0,"CLASSIFICATION_TYPE":"U","NORAD_CAT_ID":65973,"ELEMENT_SET_NO":999,"REV_AT_EPOCH":2194,"BSTAR":0.00045211532,"MEAN_MOTION_DOT":6.384e-5,"MEAN_MOTION_DDOT":0}]
